{
    "links": {
        "self": "http://www.neowsapp.com/rest/v1/neo/3758250?api_key=iIulBulltgU6a56xZRHN4H3l9WmuAYTsLGpBGhQ2"
    },
    "id": "3758250",
    "neo_reference_id": "3758250",
    "name": "(2016 QL44)",
    "designation": "2016 QL44",
    "nasa_jpl_url": "http://ssd.jpl.nasa.gov/sbdb.cgi?sstr=3758250",
    "absolute_magnitude_h": 25.1,
    "estimated_diameter": {
        "kilometers": {
            "estimated_diameter_min": 0.0253837029,
            "estimated_diameter_max": 0.0567596853
        },
        "meters": {
            "estimated_diameter_min": 25.3837029364,
            "estimated_diameter_max": 56.7596852866
        },
        "miles": {
            "estimated_diameter_min": 0.0157726969,
            "estimated_diameter_max": 0.0352688224
        },
        "feet": {
            "estimated_diameter_min": 83.279867942,
            "estimated_diameter_max": 186.2194458756
        }
    },
    "is_potentially_hazardous_asteroid": false,
    "close_approach_data": [
        {
            "close_approach_date": "2016-09-17",
            "close_approach_date_full": "2016-Sep-17 07:23",
            "epoch_date_close_approach": 1474096980000,
            "relative_velocity": {
                "kilometers_per_second": "13.3435092681",
                "kilometers_per_hour": "48036.6333651496",
                "miles_per_hour": "29848.0958818064"
            },
            "miss_distance": {
                "astronomical": "0.0088303787",
                "lunar": "3.4350173143",
                "kilometers": "1321005.844813369",
                "miles": "820834.9693437322"
            },
            "orbiting_body": "Moon"
        },
        {
            "close_approach_date": "2016-09-17",
            "close_approach_date_full": "2016-Sep-17 14:28",
            "epoch_date_close_approach": 1474122480000,
            "relative_velocity": {
                "kilometers_per_second": "13.7416803622",
                "kilometers_per_hour": "49470.0493037461",
                "miles_per_hour": "30738.7648020971"
            },
            "miss_distance": {
                "astronomical": "0.0092760738",
                "lunar": "3.6083927082",
                "kilometers": "1387680.882442806",
                "miles": "862264.9165944828"
            },
            "orbiting_body": "Earth"
        },
        {
            "close_approach_date": "2119-08-26",
            "close_approach_date_full": "2119-Aug-26 13:53",
            "epoch_date_close_approach": 4722501180000,
            "relative_velocity": {
                "kilometers_per_second": "25.1708709987",
                "kilometers_per_hour": "90615.1355954363",
                "miles_per_hour": "56304.7213370643"
            },
            "miss_distance": {
                "astronomical": "0.3899542032",
                "lunar": "151.6921850448",
                "kilometers": "58336318.196267184",
                "miles": "36248507.2615437792"
            },
            "orbiting_body": "Earth"
        }
    ],
    "orbital_data": {
        "orbit_id": "9",
        "orbit_determination_date": "2017-04-06 08:24:20",
        "first_observation_date": "2016-08-29",
        "last_observation_date": "2016-09-13",
        "data_arc_in_days": 15,
        "observations_used": 52,
        "orbit_uncertainty": "8",
        "minimum_orbit_intersection": ".0090895",
        "jupiter_tisserand_invariant": "3.800",
        "epoch_osculation": "2457634.5",
        "eccentricity": ".562873560697462",
        "semi_major_axis": "1.844728137828569",
        "inclination": "5.997478638577835",
        "ascending_node_longitude": "169.9494289741121",
        "orbital_period": "915.1599061606527",
        "perihelion_distance": ".806379442370204",
        "perihelion_argument": "248.3043650953792",
        "aphelion_distance": "2.883076833286934",
        "perihelion_time": "2457692.704532114990",
        "mean_anomaly": "337.1038575659388",
        "mean_motion": ".3933738766051268",
        "equinox": "J2000",
        "orbit_class": {
            "orbit_class_type": "APO",
            "orbit_class_description": "Near-Earth asteroid orbits which cross the Earth’s orbit similar to that of 1862 Apollo",
            "orbit_class_range": "a (semi-major axis) > 1.0 AU; q (perihelion) < 1.017 AU"
        }
    },
    "is_sentry_object": false
}